{
  "norad_id": 67689,
  "name": "PRC TEST SPACECRAFT 4",
  "history": [
    {
      "epoch": "2026-03-28T20:28:38.405856Z",
      "apogee_km": 596.7504114767908,
      "perigee_km": 588.4941047962693,
      "latitude_deg": 5.948188953815781e-05,
      "longitude_deg": 159.38601509268682,
      "height_km": 592.1736507967966,
      "semi_major_axis_km": 6970.75925813653,
      "eccentricity": 0.00059221,
      "inclination_deg": 49.9855,
      "raan_deg": 292.8137,
      "arg_perigee_deg": 76.2071,
      "mean_anomaly_deg": 283.953,
      "mean_motion_rev_day": 14.91703936
    }
  ]
}