{"fetched_at":"2026-03-29T16:36:15Z","count":15609,"tles":[{"name":"PRC TEST SPACECRAFT 4","line1":"1 67689U 26024A   26087.85322229  .00000180  00000+0  41674-4 0  9990","line2":"2 67689  49.9855 292.8137 0005922  76.2071 283.9530 14.91703936  7449","category":"Other"}]}